OBJECT_NAME,OBJECT_ID,EPOCH,MEAN_MOTION,ECCENTRICITY,INCLINATION,RA_OF_ASC_NODE,ARG_OF_PERICENTER,MEAN_ANOMALY,EPHEMERIS_TYPE,CLASSIFICATION_TYPE,NORAD_CAT_ID,ELEMENT_SET_NO,REV_AT_EPOCH,BSTAR,MEAN_MOTION_DOT,MEAN_MOTION_DDOT
EYESAT A (AO-27),1993-061C,2026-07-03T15:24:05.062464,14.30946735,.00092992,98.6874,252.0488,57.1001,303.1075,0,U,22825,999,70935,.66110072E-4,.129E-5,0
ITAMSAT (IO-26),1993-061D,2026-07-04T10:55:17.146848,14.31374357,.00095585,98.6820,252.7811,39.4050,320.7827,0,U,22826,999,70978,.66437632E-4,.132E-5,0
RADIO ROSTO (RS15),1994-085A,2026-07-04T11:58:37.308288,11.27583562,.01565241,64.8176,275.2189,0.6769,359.4341,0,U,23439,999,29785,.65197686E-3,-.2E-6,0
JAS-2 (FO-29),1996-046B,2026-07-04T12:54:08.597664,13.53275016,.03507329,98.5226,32.0316,51.5389,311.6677,0,U,24278,999,47551,.11740064E-4,-.22E-6,0
FORTE,1997-047A,2026-07-04T09:31:37.560000,14.27952275,.0024573,69.9545,335.1474,256.5546,103.2838,0,U,24920,999,50114,.10697678E-3,.208E-5,0
TECHSAT 1B (GO-32),1998-043D,2026-07-04T09:56:43.437696,14.24431783,.00018387,99.0076,178.6080,131.9279,228.2056,0,U,25397,999,45378,.51499089E-4,.72E-6,0
ISS (ZARYA),1998-067A,2026-07-04T11:25:24.159648,15.48889796,.00067442,51.6303,214.5154,255.1217,104.9025,0,U,25544,999,57443,.18498601E-3,.972E-4,0
IMAGE,2000-017A,2026-06-30T21:52:49.688544,1.68666270,.7422471,94.2398,315.5527,286.2504,9.4555,0,U,26113,999,16173,0,-.33E-6,0
CLUSTER II-FM7 (SAMBA),2000-041A,2026-07-07T05:13:52.745376,0.44837774,.9079263,149.8716,54.4790,271.8893,359.5006,0,U,26410,999,2039,0,.7566E-4,0
CLUSTER II-FM8 (TANGO),2000-045B,2026-07-03T04:43:24.837600,0.44420887,.90785547,150.1065,54.7656,272.0035,2.3073,0,U,26464,999,2038,0,.12165E-3,0
ODIN,2001-007A,2026-07-04T14:01:13.908864,15.83489487,.00052711,97.3755,227.7265,136.8814,223.2869,0,U,26702,999,39214,.2383983E-2,.550414E-2,0
OMNI-M1,2001-026A,2026-07-02T00:09:17.717184,3.92402003,.00137998,44.8270,241.8483,56.1769,304.0224,0,U,26857,999,20615,0,.7E-7,0
PCSAT (NO-44),2001-043C,2026-07-04T11:32:32.942112,14.31962328,.00060142,67.0488,199.5420,265.8312,94.2103,0,U,26931,999,29292,.97381441E-4,.178E-5,0
PROBA-1,2001-049B,2026-07-04T14:14:21.291072,15.07571683,.00563229,97.9592,194.7343,64.7601,295.9449,0,U,26958,999,34624,.16323187E-3,.2502E-4,0
SAUDISAT 1C (SO-50),2002-058C,2026-07-04T10:01:35.748768,14.83083246,.00748199,64.5521,75.6740,259.2514,100.0163,0,U,27607,999,26701,.14407648E-3,.1077E-4,0
CORIOLIS,2003-001A,2026-07-04T11:03:58.857696,14.19949628,.00144019,98.7128,192.0822,158.6711,201.5069,0,U,27640,999,21667,.76265918E-4,.119E-5,0
CUTE-1 (CO-55),2003-031E,2026-07-04T11:00:25.206048,14.24346609,.00105058,98.6738,193.8003,130.4916,229.7180,0,U,27844,999,19413,.16664262E-3,.342E-5,0
CUBESAT XI-IV (CO-57),2003-031J,2026-07-04T10:56:17.411712,14.23630269,.0010079,98.6769,193.4963,147.8071,212.3725,0,U,27848,999,19383,.14606589E-3,.289E-5,0
MOZHAETS 4 (RS22),2003-042A,2026-07-04T15:55:57.567936,14.73498166,.00104271,98.3470,10.5164,207.8599,211.3484,0,U,27939,999,21812,.1195713E-3,.723E-5,0
